{"type": "FeatureCollection", "features": [ {"type": "Feature", "properties": {"norad_id": 34750, "name": "COSMOS 2251 DEB", "group": "cosmos-2251-debris", "lat": -48.90725838617993, "lon": 154.94185374314213, "alt_km": 721.7679681545651, "timestamp": "2025-12-27T07:26:25.615617+00:00", "meta": {"OBJECT_NAME": "COSMOS 2251 DEB", "OBJECT_ID": "1993-036ZU", "EPOCH": "2025-12-26T22:22:40.831392", "MEAN_MOTION": 14.61470505, "ECCENTRICITY": 0.00382173, "INCLINATION": 74.1071, "RA_OF_ASC_NODE": 174.7283, "ARG_OF_PERICENTER": 122.8481, "MEAN_ANOMALY": 359.8296, "EPHEMERIS_TYPE": 0, "CLASSIFICATION_TYPE": "U", "NORAD_CAT_ID": 34750, "ELEMENT_SET_NO": 999, "REV_AT_EPOCH": 88438, "BSTAR": 0.0014743243, "MEAN_MOTION_DOT": 7.361e-05, "MEAN_MOTION_DDOT": 0}, "tle": {"line1": "1 34750U 93036ZU  25360.93241703  .00007361  00000+0  14743-2 0  9992", "line2": "2 34750  74.1071 174.7283 0038217 122.8481 359.8296 14.61470505884386"}}, "geometry": {"type": "Point", "coordinates": [154.94185374314213, -48.90725838617993]}}, {"type": "Feature", "properties": {"norad_id": 34752, "name": "COSMOS 2251 DEB", "group": "cosmos-2251-debris", "lat": -40.8161303407079, "lon": -43.39181042912738, "alt_km": 596.5443963340458, "timestamp": "2025-12-27T07:26:25.615628+00:00", "meta": {"OBJECT_NAME": "COSMOS 2251 DEB", "OBJECT_ID": "1993-036ZW", "EPOCH": "2025-12-26T22:01:45.950880", "MEAN_MOTION": 15.00264878, "ECCENTRICITY": 0.00475772, "INCLINATION": 74.0133, "RA_OF_ASC_NODE": 331.7421, "ARG_OF_PERICENTER": 95.626, "MEAN_ANOMALY": 265.0355, "EPHEMERIS_TYPE": 0, "CLASSIFICATION_TYPE": "U", "NORAD_CAT_ID": 34752, "ELEMENT_SET_NO": 999, "REV_AT_EPOCH": 90062, "BSTAR": 0.0011986035, "MEAN_MOTION_DOT": 0.00015369, "MEAN_MOTION_DDOT": 0}, "tle": {"line1": "1 34752U 93036ZW  25360.91789295  .00015369  00000+0  11986-2 0  9998", "line2": "2 34752  74.0133 331.7421 0047577  95.6260 265.0355 15.00264878900624"}}, "geometry": {"type": "Point", "coordinates": [-43.39181042912738, -40.8161303407079]}}, {"type": "Feature", "properties": {"norad_id": 34754, "name": "COSMOS 2251 DEB", "group": "cosmos-2251-debris", "lat": 46.02411008157629, "lon": -142.08286439078196, "alt_km": 754.1021570165494, "timestamp": "2025-12-27T07:26:25.615638+00:00", "meta": {"OBJECT_NAME": "COSMOS 2251 DEB", "OBJECT_ID": "1993-036ZY", "EPOCH": "2025-12-26T23:27:40.624128", "MEAN_MOTION": 14.40501216, "ECCENTRICITY": 0.00300583, "INCLINATION": 74.0287, "RA_OF_ASC_NODE": 201.2656, "ARG_OF_PERICENTER": 314.7192, "MEAN_ANOMALY": 170.0704, "EPHEMERIS_TYPE": 0, "CLASSIFICATION_TYPE": "U", "NORAD_CAT_ID": 34754, "ELEMENT_SET_NO": 999, "REV_AT_EPOCH": 88338, "BSTAR": 0.00023278549, "MEAN_MOTION_DOT": 7.18e-06, "MEAN_MOTION_DDOT": 0}, "tle": {"line1": "1 34754U 93036ZY  25360.97755352  .00000718  00000+0  23279-3 0  9994", "line2": "2 34754  74.0287 201.2656 0030058 314.7192 170.0704 14.40501216883381"}}, "geometry": {"type": "Point", "coordinates": [-142.08286439078196, 46.02411008157629]}}, {"type": "Feature", "properties": {"norad_id": 34755, "name": "COSMOS 2251 DEB", "group": "cosmos-2251-debris", "lat": 53.86373249417311, "lon": 63.34831599488752, "alt_km": 1350.7347510660838, "timestamp": "2025-12-27T07:26:25.615648+00:00", "meta": {"OBJECT_NAME": "COSMOS 2251 DEB", "OBJECT_ID": "1993-036ZZ", "EPOCH": "2025-12-26T12:11:51.713088", "MEAN_MOTION": 13.50581015, "ECCENTRICITY": 0.0407843, "INCLINATION": 73.9253, "RA_OF_ASC_NODE": 267.8945, "ARG_OF_PERICENTER": 285.2929, "MEAN_ANOMALY": 262.1182, "EPHEMERIS_TYPE": 0, "CLASSIFICATION_TYPE": "U", "NORAD_CAT_ID": 34755, "ELEMENT_SET_NO": 999, "REV_AT_EPOCH": 82709, "BSTAR": 0.00068246, "MEAN_MOTION_DOT": 7.11e-06, "MEAN_MOTION_DDOT": 0}, "tle": {"line1": "1 34755U 93036ZZ  25360.50823742  .00000711  00000+0  68246-3 0  9999", "line2": "2 34755  73.9253 267.8945 0407843 285.2929 262.1182 13.50581015827096"}}, "geometry": {"type": "Point", "coordinates": [63.34831599488752, 53.86373249417311]}}, {"type": "Feature", "properties": {"norad_id": 34756, "name": "COSMOS 2251 DEB", "group": "cosmos-2251-debris", "lat": -1.856901386030063, "lon": -99.05747174080552, "alt_km": 1175.6567124454423, "timestamp": "2025-12-27T07:26:25.615658+00:00", "meta": {"OBJECT_NAME": "COSMOS 2251 DEB", "OBJECT_ID": "1993-036AAA", "EPOCH": "2025-12-24T15:18:41.454720", "MEAN_MOTION": 13.67272702, "ECCENTRICITY": 0.0345926, "INCLINATION": 74.0032, "RA_OF_ASC_NODE": 84.8024, "ARG_OF_PERICENTER": 318.0621, "MEAN_ANOMALY": 39.4462, "EPHEMERIS_TYPE": 0, "CLASSIFICATION_TYPE": "U", "NORAD_CAT_ID": 34756, "ELEMENT_SET_NO": 999, "REV_AT_EPOCH": 83584, "BSTAR": 0.0010747811, "MEAN_MOTION_DOT": 1.342e-05, "MEAN_MOTION_DDOT": 0}, "tle": {"line1": "1 34756U 93036AAA 25358.63797980  .00001342  00000+0  10748-2 0  9999", "line2": "2 34756  74.0032  84.8024 0345926 318.0621  39.4462 13.67272702835842"}}, "geometry": {"type": "Point", "coordinates": [-99.05747174080552, -1.856901386030063]}}, {"type": "Feature", "properties": {"norad_id": 34758, "name": "COSMOS 2251 DEB", "group": "cosmos-2251-debris", "lat": 0.33423634618583614, "lon": 95.95293095943218, "alt_km": 1268.12853214826, "timestamp": "2025-12-27T07:26:25.615669+00:00", "meta": {"OBJECT_NAME": "COSMOS 2251 DEB", "OBJECT_ID": "1993-036AAC", "EPOCH": "2025-12-25T01:33:06.423552", "MEAN_MOTION": 13.58115883, "ECCENTRICITY": 0.03824027, "INCLINATION": 74.107, "RA_OF_ASC_NODE": 279.661, "ARG_OF_PERICENTER": 40.5031, "MEAN_ANOMALY": 322.3879, "EPHEMERIS_TYPE": 0, "CLASSIFICATION_TYPE": "U", "NORAD_CAT_ID": 34758, "ELEMENT_SET_NO": 999, "REV_AT_EPOCH": 83077, "BSTAR": 0.0017795069, "MEAN_MOTION_DOT": 2.058e-05, "MEAN_MOTION_DDOT": 0}, "tle": {"line1": "1 34758U 93036AAC 25359.06465768  .00002058  00000+0  17795-2 0  9999", "line2": "2 34758  74.1070 279.6610 0382402  40.5031 322.3879 13.58115883830773"}}, "geometry": {"type": "Point", "coordinates": [95.95293095943218, 0.33423634618583614]}}, {"type": "Feature", "properties": {"norad_id": 34760, "name": "COSMOS 2251 DEB", "group": "cosmos-2251-debris", "lat": 48.22404919334591, "lon": -64.98887818526659, "alt_km": 816.0041452369132, "timestamp": "2025-12-27T07:26:25.615680+00:00", "meta": {"OBJECT_NAME": "COSMOS 2251 DEB", "OBJECT_ID": "1993-036AAE", "EPOCH": "2025-12-26T11:28:08.253120", "MEAN_MOTION": 14.1960414, "ECCENTRICITY": 0.009732, "INCLINATION": 74.0632, "RA_OF_ASC_NODE": 277.842, "ARG_OF_PERICENTER": 326.9633, "MEAN_ANOMALY": 151.7947, "EPHEMERIS_TYPE": 0, "CLASSIFICATION_TYPE": "U", "NORAD_CAT_ID": 34760, "ELEMENT_SET_NO": 999, "REV_AT_EPOCH": 86883, "BSTAR": 0.00062411, "MEAN_MOTION_DOT": 1.356e-05, "MEAN_MOTION_DDOT": 0}, "tle": {"line1": "1 34760U 93036AAE 25360.47787330  .00001356  00000+0  62411-3 0  9997", "line2": "2 34760  74.0632 277.8420 0097320 326.9633 151.7947 14.19604140868834"}}, "geometry": {"type": "Point", "coordinates": [-64.98887818526659, 48.22404919334591]}}, {"type": "Feature", "properties": {"norad_id": 34761, "name": "COSMOS 2251 DEB", "group": "cosmos-2251-debris", "lat": -36.765462748934716, "lon": 168.29696221029636, "alt_km": 793.1027407258798, "timestamp": "2025-12-27T07:26:25.615690+00:00", "meta": {"OBJECT_NAME": "COSMOS 2251 DEB", "OBJECT_ID": "1993-036AAF", "EPOCH": "2025-12-24T04:58:02.700480", "MEAN_MOTION": 14.38089541, "ECCENTRICITY": 0.00370278, "INCLINATION": 74.0286, "RA_OF_ASC_NODE": 341.6577, "ARG_OF_PERICENTER": 12.6034, "MEAN_ANOMALY": 347.6036, "EPHEMERIS_TYPE": 0, "CLASSIFICATION_TYPE": "U", "NORAD_CAT_ID": 34761, "ELEMENT_SET_NO": 999, "REV_AT_EPOCH": 87814, "BSTAR": 0.00063419722, "MEAN_MOTION_DOT": 1.911e-05, "MEAN_MOTION_DDOT": 0}, "tle": {"line1": "1 34761U 93036AAF 25358.20697570  .00001911  00000+0  63420-3 0  9990", "line2": "2 34761  74.0286 341.6577 0037027  12.6034 347.6036 14.38089541878148"}}, "geometry": {"type": "Point", "coordinates": [168.29696221029636, -36.765462748934716]}}, {"type": "Feature", "properties": {"norad_id": 34784, "name": "COSMOS 2251 DEB", "group": "cosmos-2251-debris", "lat": -20.944286782852068, "lon": 122.76868828143522, "alt_km": 701.3552809497642, "timestamp": "2025-12-27T07:26:25.615700+00:00", "meta": {"OBJECT_NAME": "COSMOS 2251 DEB", "OBJECT_ID": "1993-036AAM", "EPOCH": "2025-12-26T05:52:17.900832", "MEAN_MOTION": 14.60839983, "ECCENTRICITY": 0.0049103, "INCLINATION": 74.0077, "RA_OF_ASC_NODE": 298.5051, "ARG_OF_PERICENTER": 103.7988, "MEAN_ANOMALY": 256.8649, "EPHEMERIS_TYPE": 0, "CLASSIFICATION_TYPE": "U", "NORAD_CAT_ID": 34784, "ELEMENT_SET_NO": 999, "REV_AT_EPOCH": 88732, "BSTAR": 0.00052479, "MEAN_MOTION_DOT": 2.579e-05, "MEAN_MOTION_DDOT": 0}, "tle": {"line1": "1 34784U 93036AAM 25360.24465163  .00002579  00000+0  52479-3 0  9996", "line2": "2 34784  74.0077 298.5051 0049103 103.7988 256.8649 14.60839983887325"}}, "geometry": {"type": "Point", "coordinates": [122.76868828143522, -20.944286782852068]}}, {"type": "Feature", "properties": {"norad_id": 34790, "name": "COSMOS 2251 DEB", "group": "cosmos-2251-debris", "lat": -49.164829526856934, "lon": 56.793528409814485, "alt_km": 763.9335089347715, "timestamp": "2025-12-27T07:26:25.615710+00:00", "meta": {"OBJECT_NAME": "COSMOS 2251 DEB", "OBJECT_ID": "1993-036AAT", "EPOCH": "2025-12-25T15:51:16.162272", "MEAN_MOTION": 14.24671167, "ECCENTRICITY": 0.0100473, "INCLINATION": 74.0524, "RA_OF_ASC_NODE": 220.442, "ARG_OF_PERICENTER": 279.3563, "MEAN_ANOMALY": 137.0748, "EPHEMERIS_TYPE": 0, "CLASSIFICATION_TYPE": "U", "NORAD_CAT_ID": 34790, "ELEMENT_SET_NO": 999, "REV_AT_EPOCH": 86757, "BSTAR": 0.00054898, "MEAN_MOTION_DOT": 1.32e-05, "MEAN_MOTION_DDOT": 0}, "tle": {"line1": "1 34790U 93036AAT 25359.66060373  .00001320  00000+0  54898-3 0  9991", "line2": "2 34790  74.0524 220.4420 0100473 279.3563 137.0748 14.24671167867573"}}, "geometry": {"type": "Point", "coordinates": [56.793528409814485, -49.164829526856934]}}]}